#dP2023 11 11  0  0  0.00000000      96 __u+U IGS20 EXT  IAC
## 2287 518400.00000000   900.00000000 60259 0.0000000000000
+  117   C06C07C08C09C10C11C12C13C14C16C19C20C21C22C23C24C25
+        C26C27C28C29C30C32C33C34C35C36C37C38C39C40C41C42C43
+        C44C45C46E02E03E04E07E08E09E10E11E12E13E15E19E21E24
+        E25E26E27E30E31E33E34E36G01G02G03G04G05G06G07G08G09
+        G10G11G12G13G14G15G16G17G18G19G20G21G22G23G24G25G26
+        G27G28G29G30G31G32J02J03J04R01R02R03R04R05R07R08R09
+        R11R12R13R14R15R16R17R18R19R20R21R22R24R25R26  0  0
++        10 10 10 11 11  9 10  9 10 10 10  8  8  8 10  8  8
++         8  7  9  8  8  8  8  9  8  8  7  9 10  9 10  7  9
++         8  7  9  7  7  7  7  8  7  7  8  8  7  7  7  7  7
++         8  7  7  9  7  7  7  8  7  7  7  7  7  8  7  7  8
++         7  8  7  7  7  7  9  6  8  7  7  7  7  7  7  7  8
++         7  7  8  7  8  8 10  8  9  8  8  8  7  9  7  7  7
++         8 10  9 10  8  9  7  7  8  9  8  7  7  8  7  0  0
%c M  cc GPS ccc cccc cccc cccc cccc ccccc ccccc ccccc ccccc
%c cc cc ccc ccc cccc cccc cccc cccc ccccc ccccc ccccc ccccc
%f  0.0000000  0.000000000  0.00000000000  0.000000000000000
%f  0.0000000  0.000000000  0.00000000000  0.000000000000000
%i    0    0    0    0      0      0      0      0         0
%i    0    0    0    0      0      0      0      0         0
/* IAC                                ULTRA-RAPID PREDICTION
/* S/V CLOCKS ARE ALIGNED TO GNSS TIME                      
/* G:C1WC2W R:C1PC2P E:C1XC5X C:C2IC6I J:C1CC2S             
/* PCV:IGS20_2280 OL/AL:FES2004  NONE     YN ORB:CoN CLK:CoN
*  2023 11 11 13  0  0.00000000
PC06 -11941.690684  40268.356254   -301.051197     18.224291
PC07  -4133.602747  29526.269324  29961.485923   -301.467288
PC08 -17756.857386  22830.465771 -30780.616846    246.622554
PC09  -6578.323629  40334.614719   9469.483446    -75.199459
PC10   5019.610574  32779.298781  26654.709047    -13.227604
PC11 -15107.305636  -5188.422939  22955.914844    250.453651
PC12  -8374.267969 -23285.973013  12934.735808    863.100483
PC13 -10756.784654  24196.760616 -32746.488637    381.036592
PC14 -25517.773734  -8402.721752  -7448.438704    762.732630
PC16 -14108.750192  39327.571034  -3973.486522   -170.120030
PC19  23190.063072    905.422312  15523.266488   -971.629669
PC20  24339.077531  13675.919281    -80.683791    126.176071
PC21 -10749.102302 -19295.060252  17052.763991   -969.303441
PC22   8652.889151 -13091.705086  23065.347348   -229.585360
PC23 -19007.189867  18538.573635   8608.130121   -823.842764
PC24 -17057.586773  -7352.542628 -20851.296662    585.613569
PC25 -25182.966988   9087.934342  -7927.978085    253.235236
PC26     -7.371698 -18062.549347 -21280.768086   -204.664473
PC27   3565.793305  27225.614140  -4975.980013    226.554867
PC28  -7555.747381  24544.130367  10935.783474    170.907114
PC29  15438.416818  -6307.543238 -22374.515698    199.922392
PC30  13753.078582  15548.329346 -18645.470699     -8.132137
PC32  10804.583172  19211.133314 -17111.424123   -534.195866
PC33 -23243.446427   -830.843172 -15418.600264   -945.730212
PC34 -14249.166913 -14124.184681  19396.021724    301.031283
PC35   6597.697094 -24888.890619 -10807.518902    505.281794
PC36  25329.413069  -7819.734352   8715.440268   -139.170812
PC37  -1222.218216  18336.265770  21016.644546   -882.846310
PC38 -24563.824621  24250.956507 -24309.555037    117.020790
PC39 -14569.765643  38349.748338  -9151.118302     -5.618118
PC40  -7338.602113  24459.594393  33631.871204    -43.570737
PC41  -9370.301884  12692.416039 -22972.175232   -871.351761
PC42 -23785.323068 -14485.755590   1647.523200   -501.584045
PC43 -15709.749154   5238.767658  22453.551446     47.803611
PC44  -4487.290010 -27146.295799   4735.321880    289.497547
PC45  18633.063484 -18625.018732  -9162.936453    -45.058219
PC46  17822.058969   6424.062608  20469.165909    -98.912954
PE02 -27200.824771   5824.817639  10146.966579     77.537236
PE03 -15875.325689   6281.785971 -24190.682175    -72.753555
PE04   2101.395032 -23250.841534  18197.857315   -255.032689
PE07  12686.279461  26681.521173  -1872.891114    -87.225364
PE08  -2436.565688  22880.674619 -18631.695998   -175.355161
PE09 -12636.856531 -26686.205349   2003.738979   -223.857826
PE10   6000.507995 -25754.756853  13285.032106   -578.049030
PE11  -2730.861710 -20903.256769  20776.507033   3194.209403
PE12  12974.971855 -26215.136290   4571.096606   -772.652034
PE13   2103.614432  21331.737482 -20406.167547    -19.603971
PE15 -13273.334899  26141.606630  -4075.221482    -68.481682
PE19  16946.932958  -3524.162281  24009.249258  -1237.315980
PE21  27837.952055   6420.907197   7733.833843   -563.629751
PE24 -11744.028787 -15803.838407 -22122.899649   -425.723913
PE25 -27697.348414  -6645.677671  -8068.578043     -3.556591
PE26  16497.999485   3507.023957 -24314.092994    277.799525
PE27  12311.842318  15590.875287  21942.411415   -197.211353
PE30 -10724.580522  15381.763624  22899.727058   -653.414904
PE31  10263.554297 -15463.742055 -23048.841538     -9.844249
PE33  20683.773990 -15058.800827 -14866.764619      2.128757
PE34 -20627.201691  15628.174848  14383.222850    -77.360495
PE36 -16017.100962  -4122.982502  24555.358788   -142.542392
PG01 -14623.009408  21940.138304    130.214116    163.195426
PG02 -16320.082670  19477.044275   7874.347169   -530.377829
PG03 -13941.120018  12205.161029 -19131.676384    -21.342372
PG04  -4793.319300  18885.356826 -17982.961007    209.916253
PG05  24404.350343  -6025.316993   8543.519180   -149.971606
PG06  12780.220483   7011.529427 -22136.815099    508.735595
PG07  -1437.671131  22051.931353  14854.091659     16.282807
PG08 -11273.915839  10759.912820  21386.948830   -151.576076
PG09   4882.081998  23949.319779 -10415.703206     -6.126439
PG10 -18960.943744 -11051.152412  15383.634822    -60.959407
PG11  18720.514330  -4749.163794 -18187.804013   -455.435478
PG12  16245.489851 -10909.686440 -18202.745301   -445.825829
PG13  15528.136848    -78.097207  21373.359178    594.100912
PG14  15476.823825  13358.557678  17069.593316    240.190372
PG15   9509.878809 -12926.266981  20647.744684     96.066252
PG16 -26509.400292   -914.942400   3567.600254   -423.943314
PG17  12849.462387  22827.170529  -3502.064069    723.353412
PG18   1005.939294 -21153.303121  15925.948205   -475.984476
PG19  16055.217630  17531.333630 -12390.338603    397.438825
PG20  26145.730602   -601.945588  -3974.621549    402.182431
PG21 -17196.067203  16621.388003  10987.436483    144.549972
PG22  20611.146170  11426.425420  12410.541073     85.904773
PG23  -6251.424704 -14524.190284  21382.659991     97.142204
PG24  15160.892813 -20709.586880   5509.384284   -368.669088
PG25   2392.463699 -15447.811716 -21782.089212    476.911716
PG26 -25629.676890  -4068.187158  -6630.468717    217.382302
PG27 -17342.052612  -3610.169289  19661.583135    -68.424694
PG28 -12256.372687  -9112.405892 -21756.259279    -43.824774
PG29  -2518.261339 -24161.016160 -10661.861482   -610.226697
PG30   7342.292644  15900.241415  20019.814517   -469.381989
PG31 -17314.669883   -117.470532 -20446.832861   -225.631145
PG32 -16234.656349 -19901.267150  -6995.947528   -584.419803
PJ02 -29192.734038  23197.168676  24789.398238     -0.141277
PJ03 -30476.313591  26779.890113  16558.278100     -7.880032
PJ04 -25706.041358  20299.883619 -21445.176405     72.236295
PR01  -8577.647233 -17006.116554  16959.916336     69.593758
PR02 -19272.470097 -16755.139819    769.426717    -22.342629
PR03 -19179.015698  -6375.879629 -15565.466963     88.823744
PR04  -8371.401159   6945.644495 -23050.559862    210.634568
PR05   6747.888407  16702.997131 -18039.274774    122.045189
PR07  18784.936670   5623.398768  16313.855688     68.881041
PR08   8194.287724  -7311.352340  23073.789907    -73.239629
PR09  14372.094899   5116.853130  20483.847522    152.631111
PR11  20701.098671 -12293.536463  -8439.891685   -212.398391
PR12   4141.219512 -12683.881342 -21713.506008     33.311489
PR13 -12181.038961  -6326.313919 -21516.498256    -41.177259
PR14 -23764.271150   5200.156393  -7635.880268     25.538016
PR15 -19956.377366  12537.566528   9771.599043     84.842229
PR16  -4404.741954  12654.453519  21706.134116     20.517252
PR17 -11141.723494   3527.125081  22693.896581     33.922521
PR18  -9870.597059  19126.340262  13677.319585    111.420859
PR19  -5066.702148  24990.249728   -877.886187   -254.253241
PR20   5203.939396  15982.447641 -19158.997498   -103.350592
PR21  11138.510219  -4162.034513 -22555.036513    -52.570865
PR22  10401.569434 -19543.081649 -12646.885706     93.009825
PR24  -6482.278711 -15324.851963  19348.739027    -31.729005
PR25  11560.355685  -2932.897610 -22535.199401     -6.061051
PR26      0.000000      0.000000      0.000000     17.690979
EOF
